[
{"id":"152900","name":"阿拉善盟","orderIndex":"152900","pinyin":"alashanmeng","provinceId":"150000","py":"alsm","rowVersion":"0"},

{"id":"210300","name":"鞍山市","orderIndex":"210300","pinyin":"anshanshi","provinceId":"210000","py":"ass","rowVersion":"0"},

{"id":"340800","name":"安庆市","orderIndex":"340800","pinyin":"anqingshi","provinceId":"340000","py":"aqs","rowVersion":"0"},

{"id":"410500","name":"安阳市","orderIndex":"410500","pinyin":"anyangshi","provinceId":"410000","py":"ays","rowVersion":"0"},

{"id":"513200","name":"阿坝藏族羌族自治州","orderIndex":"513200","pinyin":"abazangzuqiangzuzizhizhou","provinceId":"510000","py":"abzzqzzzz","rowVersion":"0"},

{"id":"520400","name":"安顺市","orderIndex":"520400","pinyin":"anshunshi","provinceId":"520000","py":"ass","rowVersion":"0"},

{"id":"542500","name":"阿里地区","orderIndex":"542500","pinyin":"alidiqu","provinceId":"540000","py":"aldq","rowVersion":"0"},
{"id":"610900","name":"安康市","orderIndex":"610900","pinyin":"ankangshi","provinceId":"610000","py":"aks","rowVersion":"0"},
{"id":"652900","name":"阿克苏地区","orderIndex":"652900","pinyin":"akesudiqu","provinceId":"650000","py":"aksdq","rowVersion":"0"},
{"id":"654300","name":"阿勒泰地区","orderIndex":"654300","pinyin":"aletaidiqu","provinceId":"650000","py":"altdq","rowVersion":"0"},
{"id":"820100","name":"澳门半岛","orderIndex":"820100","pinyin":"aomenbandao","provinceId":"820000","py":"ambd","rowVersion":"0"},
{"id":"110100","name":"北京市","orderIndex":"110100","pinyin":"beijingshi","provinceId":"110000","py":"bjs","rowVersion":"0"},
{"id":"130600","name":"保定市","orderIndex":"130600","pinyin":"baodingshi","provinceId":"130000","py":"bds","rowVersion":"0"},
{"id":"150200","name":"包头市","orderIndex":"150200","pinyin":"baotoushi","provinceId":"150000","py":"bts","rowVersion":"0"},
{"id":"150800","name":"巴彦淖尔市","orderIndex":"150800","pinyin":"bayannaoershi","provinceId":"150000","py":"bynes","rowVersion":"0"},
{"id":"210500","name":"本溪市","orderIndex":"210500","pinyin":"benxishi","provinceId":"210000","py":"bxs","rowVersion":"0"},
{"id":"220600","name":"白山市","orderIndex":"220600","pinyin":"baishanshi","provinceId":"220000","py":"bss","rowVersion":"0"},
{"id":"220800","name":"白城市","orderIndex":"220800","pinyin":"baichengshi","provinceId":"220000","py":"bcs","rowVersion":"0"},
{"id":"340300","name":"蚌埠市","orderIndex":"340300","pinyin":"bengbushi","provinceId":"340000","py":"bbs","rowVersion":"0"},
{"id":"341600","name":"亳州市","orderIndex":"341600","pinyin":"bozhoushi","provinceId":"340000","py":"bzs","rowVersion":"0"},
{"id":"371600","name":"滨州市","orderIndex":"371600","pinyin":"binzhoushi","provinceId":"370000","py":"bzs","rowVersion":"0"},
{"id":"450500","name":"北海市","orderIndex":"450500","pinyin":"beihaishi","provinceId":"450000","py":"bhs","rowVersion":"0"},
{"id":"451000","name":"百色市","orderIndex":"451000","pinyin":"baiseshi","provinceId":"450000","py":"bss","rowVersion":"0"},
{"id":"511900","name":"巴中市","orderIndex":"511900","pinyin":"bazhongshi","provinceId":"510000","py":"bzs","rowVersion":"0"},
{"id":"520500","name":"毕节市","orderIndex":"520500","pinyin":"bijieshi","provinceId":"520000","py":"bjs","rowVersion":"0"},
{"id":"530500","name":"保山市","orderIndex":"530500","pinyin":"baoshanshi","provinceId":"530000","py":"bss","rowVersion":"0"},
{"id":"610300","name":"宝鸡市","orderIndex":"610300","pinyin":"baojishi","provinceId":"610000","py":"bjs","rowVersion":"0"},
{"id":"620400","name":"白银市","orderIndex":"620400","pinyin":"baiyinshi","provinceId":"620000","py":"bys","rowVersion":"0"},
{"id":"652700","name":"博尔塔拉蒙古自治州","orderIndex":"652700","pinyin":"boertalamengguzizhizhou","provinceId":"650000","py":"betlmgzzz","rowVersion":"0"},
{"id":"652800","name":"巴音郭楞蒙古自治州","orderIndex":"652800","pinyin":"bayinguolengmengguzizhizhou","provinceId":"650000","py":"byglmgzzz","rowVersion":"0"},
{"id":"130800","name":"承德市","orderIndex":"130800","pinyin":"chengdeshi","provinceId":"130000","py":"cds","rowVersion":"0"},
{"id":"130900","name":"沧州市","orderIndex":"130900","pinyin":"cangzhoushi","provinceId":"130000","py":"czs","rowVersion":"0"},
{"id":"140400","name":"长治市","orderIndex":"140400","pinyin":"changzhishi","provinceId":"140000","py":"czs","rowVersion":"0"},
{"id":"150400","name":"赤峰市","orderIndex":"150400","pinyin":"chifengshi","provinceId":"150000","py":"cfs","rowVersion":"0"},
{"id":"211300","name":"朝阳市","orderIndex":"211300","pinyin":"chaoyangshi","provinceId":"210000","py":"cys","rowVersion":"0"},
{"id":"220100","name":"长春市","orderIndex":"220100","pinyin":"changchunshi","provinceId":"220000","py":"ccs","rowVersion":"0"},
{"id":"320400","name":"常州市","orderIndex":"320400","pinyin":"changzhoushi","provinceId":"320000","py":"czs","rowVersion":"0"},
{"id":"341100","name":"滁州市","orderIndex":"341100","pinyin":"chuzhoushi","provinceId":"340000","py":"czs","rowVersion":"0"},
{"id":"341700","name":"池州市","orderIndex":"341700","pinyin":"chizhoushi","provinceId":"340000","py":"czs","rowVersion":"0"},
{"id":"430100","name":"长沙市","orderIndex":"430100","pinyin":"changshashi","provinceId":"430000","py":"css","rowVersion":"0"},
{"id":"430700","name":"常德市","orderIndex":"430700","pinyin":"changdeshi","provinceId":"430000","py":"cds","rowVersion":"0"},
{"id":"431000","name":"郴州市","orderIndex":"431000","pinyin":"chenzhoushi","provinceId":"430000","py":"czs","rowVersion":"0"},
{"id":"445100","name":"潮州市","orderIndex":"445100","pinyin":"chaozhoushi","provinceId":"440000","py":"czs","rowVersion":"0"},
{"id":"451400","name":"崇左市","orderIndex":"451400","pinyin":"chongzuoshi","provinceId":"450000","py":"czs","rowVersion":"0"},
{"id":"500100","name":"重庆市","orderIndex":"500100","pinyin":"chongqingshi","provinceId":"500000","py":"cqs","rowVersion":"0"},
{"id":"510100","name":"成都市","orderIndex":"510100","pinyin":"chengdushi","provinceId":"510000","py":"cds","rowVersion":"0"},
{"id":"532300","name":"楚雄彝族自治州","orderIndex":"532300","pinyin":"chuxiongyizuzizhizhou","provinceId":"530000","py":"cxyzzzz","rowVersion":"0"},
{"id":"540300","name":"昌都市","orderIndex":"540300","pinyin":"changdoushi","provinceId":"540000","py":"cds","rowVersion":"0"},
{"id":"652300","name":"昌吉回族自治州","orderIndex":"652300","pinyin":"changjihuizuzizhizhou","provinceId":"650000","py":"cjhzzzz","rowVersion":"0"},
{"id":"140200","name":"大同市","orderIndex":"140200","pinyin":"datongshi","provinceId":"140000","py":"dts","rowVersion":"0"},
{"id":"210200","name":"大连市","orderIndex":"210200","pinyin":"dalianshi","provinceId":"210000","py":"dls","rowVersion":"0"},
{"id":"210600","name":"丹东市","orderIndex":"210600","pinyin":"dandongshi","provinceId":"210000","py":"dds","rowVersion":"0"},
{"id":"230600","name":"大庆市","orderIndex":"230600","pinyin":"daqingshi","provinceId":"230000","py":"dqs","rowVersion":"0"},
{"id":"232700","name":"大兴安岭地区","orderIndex":"232700","pinyin":"daxinganlingdiqu","provinceId":"230000","py":"dxaldq","rowVersion":"0"},
{"id":"370500","name":"东营市","orderIndex":"370500","pinyin":"dongyingshi","provinceId":"370000","py":"dys","rowVersion":"0"},
{"id":"371400","name":"德州市","orderIndex":"371400","pinyin":"dezhoushi","provinceId":"370000","py":"dzs","rowVersion":"0"},
{"id":"441900","name":"东莞市","orderIndex":"441900","pinyin":"dongguanshi","provinceId":"440000","py":"dgs","rowVersion":"0"},
{"id":"510600","name":"德阳市","orderIndex":"510600","pinyin":"deyangshi","provinceId":"510000","py":"dys","rowVersion":"0"},
{"id":"511700","name":"达州市","orderIndex":"511700","pinyin":"dazhoushi","provinceId":"510000","py":"dzs","rowVersion":"0"},
{"id":"532900","name":"大理白族自治州","orderIndex":"532900","pinyin":"dalibaizuzizhizhou","provinceId":"530000","py":"dlbzzzz","rowVersion":"0"},
{"id":"533100","name":"德宏傣族景颇族自治州","orderIndex":"533100","pinyin":"dehongdaizujingpozuzizhizhou","provinceId":"530000","py":"dhdzjpzzzz","rowVersion":"0"},
{"id":"533400","name":"迪庆藏族自治州","orderIndex":"533400","pinyin":"diqingzangzuzizhizhou","provinceId":"530000","py":"dqzzzzz","rowVersion":"0"},
{"id":"621100","name":"定西市","orderIndex":"621100","pinyin":"dingxishi","provinceId":"620000","py":"dxs","rowVersion":"0"},
{"id":"150600","name":"鄂尔多斯市","orderIndex":"150600","pinyin":"eerduosishi","provinceId":"150000","py":"eedss","rowVersion":"0"},
{"id":"420700","name":"鄂州市","orderIndex":"420700","pinyin":"ezhoushi","provinceId":"420000","py":"ezs","rowVersion":"0"},
{"id":"422800","name":"恩施土家族苗族自治州","orderIndex":"422800","pinyin":"enshitujiazumiaozuzizhizhou","provinceId":"420000","py":"estjzmzzzz","rowVersion":"0"},
{"id":"210400","name":"抚顺市","orderIndex":"210400","pinyin":"fushunshi","provinceId":"210000","py":"fss","rowVersion":"0"},
{"id":"210900","name":"阜新市","orderIndex":"210900","pinyin":"fuxinshi","provinceId":"210000","py":"fxs","rowVersion":"0"},
{"id":"341200","name":"阜阳市","orderIndex":"341200","pinyin":"fuyangshi","provinceId":"340000","py":"fys","rowVersion":"0"},
{"id":"350100","name":"福州市","orderIndex":"350100","pinyin":"fuzhoushi","provinceId":"350000","py":"fzs","rowVersion":"0"},
{"id":"361000","name":"抚州市","orderIndex":"361000","pinyin":"fuzhoushi","provinceId":"360000","py":"fzs","rowVersion":"0"},
{"id":"440600","name":"佛山市","orderIndex":"440600","pinyin":"foshanshi","provinceId":"440000","py":"fss","rowVersion":"0"},
{"id":"450600","name":"防城港市","orderIndex":"450600","pinyin":"fangchenggangshi","provinceId":"450000","py":"fcgs","rowVersion":"0"},
{"id":"360700","name":"赣州市","orderIndex":"360700","pinyin":"ganzhoushi","provinceId":"360000","py":"gzs","rowVersion":"0"},
{"id":"440100","name":"广州市","orderIndex":"440100","pinyin":"guangzhoushi","provinceId":"440000","py":"gzs","rowVersion":"0"},
{"id":"450300","name":"桂林市","orderIndex":"450300","pinyin":"guilinshi","provinceId":"450000","py":"gls","rowVersion":"0"},
{"id":"450800","name":"贵港市","orderIndex":"450800","pinyin":"guigangshi","provinceId":"450000","py":"ggs","rowVersion":"0"},
{"id":"510800","name":"广元市","orderIndex":"510800","pinyin":"guangyuanshi","provinceId":"510000","py":"gys","rowVersion":"0"},
{"id":"511600","name":"广安市","orderIndex":"511600","pinyin":"guanganshi","provinceId":"510000","py":"gas","rowVersion":"0"},
{"id":"513300","name":"甘孜藏族自治州","orderIndex":"513300","pinyin":"ganzizangzuzizhizhou","provinceId":"510000","py":"gzzzzzz","rowVersion":"0"},
{"id":"520100","name":"贵阳市","orderIndex":"520100","pinyin":"guiyangshi","provinceId":"520000","py":"gys","rowVersion":"0"},
{"id":"623000","name":"甘南藏族自治州","orderIndex":"623000","pinyin":"gannanzangzuzizhizhou","provinceId":"620000","py":"gnzzzzz","rowVersion":"0"},
{"id":"632600","name":"果洛藏族自治州","orderIndex":"632600","pinyin":"guoluozangzuzizhizhou","provinceId":"630000","py":"glzzzzz","rowVersion":"0"},
{"id":"640400","name":"固原市","orderIndex":"640400","pinyin":"guyuanshi","provinceId":"640000","py":"gys","rowVersion":"0"},
{"id":"710200","name":"高雄市","orderIndex":"710200","pinyin":"gaoxiongshi","provinceId":"710000","py":"gxs","rowVersion":"0"},
{"id":"130400","name":"邯郸市","orderIndex":"130400","pinyin":"handanshi","provinceId":"130000","py":"hds","rowVersion":"0"},
{"id":"131100","name":"衡水市","orderIndex":"131100","pinyin":"hengshuishi","provinceId":"130000","py":"hss","rowVersion":"0"},
{"id":"150100","name":"呼和浩特市","orderIndex":"150100","pinyin":"huhehaoteshi","provinceId":"150000","py":"hhhts","rowVersion":"0"},
{"id":"150700","name":"呼伦贝尔市","orderIndex":"150700","pinyin":"hulunbeiershi","provinceId":"150000","py":"hlbes","rowVersion":"0"},
{"id":"211400","name":"葫芦岛市","orderIndex":"211400","pinyin":"huludaoshi","provinceId":"210000","py":"hlds","rowVersion":"0"},
{"id":"230100","name":"哈尔滨市","orderIndex":"230100","pinyin":"haerbinshi","provinceId":"230000","py":"hebs","rowVersion":"0"},
{"id":"230400","name":"鹤岗市","orderIndex":"230400","pinyin":"hegangshi","provinceId":"230000","py":"hgs","rowVersion":"0"},
{"id":"231100","name":"黑河市","orderIndex":"231100","pinyin":"heiheshi","provinceId":"230000","py":"hhs","rowVersion":"0"},
{"id":"320800","name":"淮安市","orderIndex":"320800","pinyin":"huaianshi","provinceId":"320000","py":"has","rowVersion":"0"},
{"id":"330100","name":"杭州市","orderIndex":"330100","pinyin":"hangzhoushi","provinceId":"330000","py":"hzs","rowVersion":"0"},
{"id":"330500","name":"湖州市","orderIndex":"330500","pinyin":"huzhoushi","provinceId":"330000","py":"hzs","rowVersion":"0"},
{"id":"340100","name":"合肥市","orderIndex":"340100","pinyin":"hefeishi","provinceId":"340000","py":"hfs","rowVersion":"0"},
{"id":"340400","name":"淮南市","orderIndex":"340400","pinyin":"huainanshi","provinceId":"340000","py":"hns","rowVersion":"0"},
{"id":"340600","name":"淮北市","orderIndex":"340600","pinyin":"huaibeishi","provinceId":"340000","py":"hbs","rowVersion":"0"},
{"id":"341000","name":"黄山市","orderIndex":"341000","pinyin":"huangshanshi","provinceId":"340000","py":"hss","rowVersion":"0"},
{"id":"371700","name":"菏泽市","orderIndex":"371700","pinyin":"hezeshi","provinceId":"370000","py":"hzs","rowVersion":"0"},
{"id":"410600","name":"鹤壁市","orderIndex":"410600","pinyin":"hebishi","provinceId":"410000","py":"hbs","rowVersion":"0"},
{"id":"420200","name":"黄石市","orderIndex":"420200","pinyin":"huangshishi","provinceId":"420000","py":"hss","rowVersion":"0"},
{"id":"421100","name":"黄冈市","orderIndex":"421100","pinyin":"huanggangshi","provinceId":"420000","py":"hgs","rowVersion":"0"},
{"id":"430400","name":"衡阳市","orderIndex":"430400","pinyin":"hengyangshi","provinceId":"430000","py":"hys","rowVersion":"0"},
{"id":"431200","name":"怀化市","orderIndex":"431200","pinyin":"huaihuashi","provinceId":"430000","py":"hhs","rowVersion":"0"},
{"id":"441300","name":"惠州市","orderIndex":"441300","pinyin":"huizhoushi","provinceId":"440000","py":"hzs","rowVersion":"0"},
{"id":"441600","name":"河源市","orderIndex":"441600","pinyin":"heyuanshi","provinceId":"440000","py":"hys","rowVersion":"0"},
{"id":"451100","name":"贺州市","orderIndex":"451100","pinyin":"hezhoushi","provinceId":"450000","py":"hzs","rowVersion":"0"},
{"id":"451200","name":"河池市","orderIndex":"451200","pinyin":"hechishi","provinceId":"450000","py":"hcs","rowVersion":"0"},
{"id":"460100","name":"海口市","orderIndex":"460100","pinyin":"haikoushi","provinceId":"460000","py":"hks","rowVersion":"0"},
{"id":"532500","name":"红河哈尼族彝族自治州","orderIndex":"532500","pinyin":"honghehanizuyizuzizhizhou","provinceId":"530000","py":"hhhnzyzzzz","rowVersion":"0"},
{"id":"610700","name":"汉中市","orderIndex":"610700","pinyin":"hanzhongshi","provinceId":"610000","py":"hzs","rowVersion":"0"},
{"id":"630200","name":"海东市","orderIndex":"630200","pinyin":"haidongshi","provinceId":"630000","py":"hds","rowVersion":"0"},
{"id":"632200","name":"海北藏族自治州","orderIndex":"632200","pinyin":"haibeizangzuzizhizhou","provinceId":"630000","py":"hbzzzzz","rowVersion":"0"},
{"id":"632300","name":"黄南藏族自治州","orderIndex":"632300","pinyin":"huangnanzangzuzizhizhou","provinceId":"630000","py":"hnzzzzz","rowVersion":"0"},
{"id":"632500","name":"海南藏族自治州","orderIndex":"632500","pinyin":"hainanzangzuzizhizhou","provinceId":"630000","py":"hnzzzzz","rowVersion":"0"},
{"id":"632800","name":"海西蒙古族藏族自治州","orderIndex":"632800","pinyin":"haiximengguzuzangzuzizhizhou","provinceId":"630000","py":"hxmgzzzzzz","rowVersion":"0"},
{"id":"653200","name":"和田地区","orderIndex":"653200","pinyin":"hetiandiqu","provinceId":"650000","py":"htdq","rowVersion":"0"},
{"id":"712600","name":"花莲县","orderIndex":"712600","pinyin":"hualianxian","provinceId":"710000","py":"hlx","rowVersion":"0"},
{"id":"140500","name":"晋城市","orderIndex":"140500","pinyin":"jinchengshi","provinceId":"140000","py":"jcs","rowVersion":"0"},
{"id":"140700","name":"晋中市","orderIndex":"140700","pinyin":"jinzhongshi","provinceId":"140000","py":"jzs","rowVersion":"0"},
{"id":"210700","name":"锦州市","orderIndex":"210700","pinyin":"jinzhoushi","provinceId":"210000","py":"jzs","rowVersion":"0"},
{"id":"220200","name":"吉林市","orderIndex":"220200","pinyin":"jilinshi","provinceId":"220000","py":"jls","rowVersion":"0"},
{"id":"230300","name":"鸡西市","orderIndex":"230300","pinyin":"jixishi","provinceId":"230000","py":"jxs","rowVersion":"0"},
{"id":"230800","name":"佳木斯市","orderIndex":"230800","pinyin":"jiamusishi","provinceId":"230000","py":"jmss","rowVersion":"0"},
{"id":"330400","name":"嘉兴市","orderIndex":"330400","pinyin":"jiaxingshi","provinceId":"330000","py":"jxs","rowVersion":"0"},
{"id":"330700","name":"金华市","orderIndex":"330700","pinyin":"jinhuashi","provinceId":"330000","py":"jhs","rowVersion":"0"},
{"id":"360200","name":"景德镇市","orderIndex":"360200","pinyin":"jingdezhenshi","provinceId":"360000","py":"jdzs","rowVersion":"0"},
{"id":"360400","name":"九江市","orderIndex":"360400","pinyin":"jiujiangshi","provinceId":"360000","py":"jjs","rowVersion":"0"},
{"id":"360800","name":"吉安市","orderIndex":"360800","pinyin":"jianshi","provinceId":"360000","py":"jas","rowVersion":"0"},
{"id":"370100","name":"济南市","orderIndex":"370100","pinyin":"jinanshi","provinceId":"370000","py":"jns","rowVersion":"0"},
{"id":"370800","name":"济宁市","orderIndex":"370800","pinyin":"jiningshi","provinceId":"370000","py":"jns","rowVersion":"0"},
{"id":"410800","name":"焦作市","orderIndex":"410800","pinyin":"jiaozuoshi","provinceId":"410000","py":"jzs","rowVersion":"0"},
{"id":"420800","name":"荆门市","orderIndex":"420800","pinyin":"jingmenshi","provinceId":"420000","py":"jms","rowVersion":"0"},
{"id":"421000","name":"荆州市","orderIndex":"421000","pinyin":"jingzhoushi","provinceId":"420000","py":"jzs","rowVersion":"0"},
{"id":"440700","name":"江门市","orderIndex":"440700","pinyin":"jiangmenshi","provinceId":"440000","py":"jms","rowVersion":"0"},
{"id":"445200","name":"揭阳市","orderIndex":"445200","pinyin":"jieyangshi","provinceId":"440000","py":"jys","rowVersion":"0"},
{"id":"620200","name":"嘉峪关市","orderIndex":"620200","pinyin":"jiayuguanshi","provinceId":"620000","py":"jygs","rowVersion":"0"},
{"id":"620300","name":"金昌市","orderIndex":"620300","pinyin":"jinchangshi","provinceId":"620000","py":"jcs","rowVersion":"0"},
{"id":"620900","name":"酒泉市","orderIndex":"620900","pinyin":"jiuquanshi","provinceId":"620000","py":"jqs","rowVersion":"0"},
{"id":"710500","name":"金门县","orderIndex":"710500","pinyin":"jinmenxian","provinceId":"710000","py":"jmx","rowVersion":"0"},
{"id":"710700","name":"基隆市","orderIndex":"710700","pinyin":"jilongshi","provinceId":"710000","py":"jls","rowVersion":"0"},
{"id":"710900","name":"嘉义市","orderIndex":"710900","pinyin":"jiayishi","provinceId":"710000","py":"jys","rowVersion":"0"},
{"id":"711900","name":"嘉义县","orderIndex":"711900","pinyin":"jiayixian","provinceId":"710000","py":"jyx","rowVersion":"0"},
{"id":"810200","name":"九龙","orderIndex":"810200","pinyin":"jiulong","provinceId":"810000","py":"jl","rowVersion":"0"},
{"id":"410200","name":"开封市","orderIndex":"410200","pinyin":"kaifengshi","provinceId":"410000","py":"kfs","rowVersion":"0"},
{"id":"530100","name":"昆明市","orderIndex":"530100","pinyin":"kunmingshi","provinceId":"530000","py":"kms","rowVersion":"0"},
{"id":"650200","name":"克拉玛依市","orderIndex":"650200","pinyin":"kelamayishi","provinceId":"650000","py":"klmys","rowVersion":"0"},
{"id":"653000","name":"克孜勒苏柯尔克孜自治州","orderIndex":"653000","pinyin":"kezilesukeerkezizizhizhou","provinceId":"650000","py":"kzlskekzzzz","rowVersion":"0"},
{"id":"653100","name":"喀什地区","orderIndex":"653100","pinyin":"kashendiqu","provinceId":"650000","py":"ksdq","rowVersion":"0"},
{"id":"131000","name":"廊坊市","orderIndex":"131000","pinyin":"langfangshi","provinceId":"130000","py":"lfs","rowVersion":"0"},
{"id":"141000","name":"临汾市","orderIndex":"141000","pinyin":"linfenshi","provinceId":"140000","py":"lfs","rowVersion":"0"},
{"id":"141100","name":"吕梁市","orderIndex":"141100","pinyin":"lvliangshi","provinceId":"140000","py":"lls","rowVersion":"0"},
{"id":"211000","name":"辽阳市","orderIndex":"211000","pinyin":"liaoyangshi","provinceId":"210000","py":"lys","rowVersion":"0"},
{"id":"220400","name":"辽源市","orderIndex":"220400","pinyin":"liaoyuanshi","provinceId":"220000","py":"lys","rowVersion":"0"},
{"id":"320700","name":"连云港市","orderIndex":"320700","pinyin":"lianyungangshi","provinceId":"320000","py":"lygs","rowVersion":"0"},
{"id":"331100","name":"丽水市","orderIndex":"331100","pinyin":"lishuishi","provinceId":"330000","py":"lss","rowVersion":"0"},
{"id":"341500","name":"六安市","orderIndex":"341500","pinyin":"luanshi","provinceId":"340000","py":"las","rowVersion":"0"},
{"id":"350800","name":"龙岩市","orderIndex":"350800","pinyin":"longyanshi","provinceId":"350000","py":"lys","rowVersion":"0"},
{"id":"371200","name":"莱芜市","orderIndex":"371200","pinyin":"laiwushi","provinceId":"370000","py":"lws","rowVersion":"0"},
{"id":"371300","name":"临沂市","orderIndex":"371300","pinyin":"linyishi","provinceId":"370000","py":"lys","rowVersion":"0"},
{"id":"371500","name":"聊城市","orderIndex":"371500","pinyin":"liaochengshi","provinceId":"370000","py":"lcs","rowVersion":"0"},
{"id":"410300","name":"洛阳市","orderIndex":"410300","pinyin":"luoyangshi","provinceId":"410000","py":"lys","rowVersion":"0"},
{"id":"411100","name":"漯河市","orderIndex":"411100","pinyin":"luoheshi","provinceId":"410000","py":"lhs","rowVersion":"0"},
{"id":"431300","name":"娄底市","orderIndex":"431300","pinyin":"loudishi","provinceId":"430000","py":"lds","rowVersion":"0"},
{"id":"450200","name":"柳州市","orderIndex":"450200","pinyin":"liuzhoushi","provinceId":"450000","py":"lzs","rowVersion":"0"},
{"id":"451300","name":"来宾市","orderIndex":"451300","pinyin":"laibinshi","provinceId":"450000","py":"lbs","rowVersion":"0"},
{"id":"510500","name":"泸州市","orderIndex":"510500","pinyin":"luzhoushi","provinceId":"510000","py":"lzs","rowVersion":"0"},
{"id":"511100","name":"乐山市","orderIndex":"511100","pinyin":"leshanshi","provinceId":"510000","py":"lss","rowVersion":"0"},
{"id":"513400","name":"凉山彝族自治州","orderIndex":"513400","pinyin":"liangshanyizuzizhizhou","provinceId":"510000","py":"lsyzzzz","rowVersion":"0"},
{"id":"520200","name":"六盘水市","orderIndex":"520200","pinyin":"liupanshuishi","provinceId":"520000","py":"lpss","rowVersion":"0"},
{"id":"530700","name":"丽江市","orderIndex":"530700","pinyin":"lijiangshi","provinceId":"530000","py":"ljs","rowVersion":"0"},
{"id":"530900","name":"临沧市","orderIndex":"530900","pinyin":"lincangshi","provinceId":"530000","py":"lcs","rowVersion":"0"},
{"id":"540100","name":"拉萨市","orderIndex":"540100","pinyin":"lasashi","provinceId":"540000","py":"lss","rowVersion":"0"},
{"id":"540400","name":"林芝市","orderIndex":"540400","pinyin":"linzhishi","provinceId":"540000","py":"lzs","rowVersion":"0"},
{"id":"620100","name":"兰州市","orderIndex":"620100","pinyin":"lanzhoushi","provinceId":"620000","py":"lzs","rowVersion":"0"},
{"id":"621200","name":"陇南市","orderIndex":"621200","pinyin":"longnanshi","provinceId":"620000","py":"lns","rowVersion":"0"},
{"id":"622900","name":"临夏回族自治州","orderIndex":"622900","pinyin":"linxiahuizuzizhizhou","provinceId":"620000","py":"lxhzzzz","rowVersion":"0"},
{"id":"712800","name":"连江县","orderIndex":"712800","pinyin":"lianjiangxian","provinceId":"710000","py":"ljx","rowVersion":"0"},
{"id":"820200","name":"离岛","orderIndex":"820200","pinyin":"lidao","provinceId":"820000","py":"ld","rowVersion":"0"},
{"id":"231000","name":"牡丹江市","orderIndex":"231000","pinyin":"mudanjiangshi","provinceId":"230000","py":"mdjs","rowVersion":"0"},
{"id":"340500","name":"马鞍山市","orderIndex":"340500","pinyin":"maanshanshi","provinceId":"340000","py":"mass","rowVersion":"0"},
{"id":"440900","name":"茂名市","orderIndex":"440900","pinyin":"maomingshi","provinceId":"440000","py":"mms","rowVersion":"0"},
{"id":"441400","name":"梅州市","orderIndex":"441400","pinyin":"meizhoushi","provinceId":"440000","py":"mzs","rowVersion":"0"},
{"id":"510700","name":"绵阳市","orderIndex":"510700","pinyin":"mianyangshi","provinceId":"510000","py":"mys","rowVersion":"0"},
{"id":"511400","name":"眉山市","orderIndex":"511400","pinyin":"meishanshi","provinceId":"510000","py":"mss","rowVersion":"0"},
{"id":"711500","name":"苗栗县","orderIndex":"711500","pinyin":"miaolixian","provinceId":"710000","py":"mlx","rowVersion":"0"},
{"id":"320100","name":"南京市","orderIndex":"320100","pinyin":"nanjingshi","provinceId":"320000","py":"njs","rowVersion":"0"},
{"id":"320600","name":"南通市","orderIndex":"320600","pinyin":"nantongshi","provinceId":"320000","py":"nts","rowVersion":"0"},
{"id":"330200","name":"宁波市","orderIndex":"330200","pinyin":"ningboshi","provinceId":"330000","py":"nbs","rowVersion":"0"},
{"id":"350700","name":"南平市","orderIndex":"350700","pinyin":"nanpingshi","provinceId":"350000","py":"nps","rowVersion":"0"},
{"id":"350900","name":"宁德市","orderIndex":"350900","pinyin":"ningdeshi","provinceId":"350000","py":"nds","rowVersion":"0"},
{"id":"360100","name":"南昌市","orderIndex":"360100","pinyin":"nanchangshi","provinceId":"360000","py":"ncs","rowVersion":"0"},
{"id":"411300","name":"南阳市","orderIndex":"411300","pinyin":"nanyangshi","provinceId":"410000","py":"nys","rowVersion":"0"},
{"id":"450100","name":"南宁市","orderIndex":"450100","pinyin":"nanningshi","provinceId":"450000","py":"nns","rowVersion":"0"},
{"id":"511000","name":"内江市","orderIndex":"511000","pinyin":"neijiangshi","provinceId":"510000","py":"njs","rowVersion":"0"},
{"id":"511300","name":"南充市","orderIndex":"511300","pinyin":"nanchongshi","provinceId":"510000","py":"ncs","rowVersion":"0"},
{"id":"533300","name":"怒江傈僳族自治州","orderIndex":"533300","pinyin":"nujianglisuzuzizhizhou","provinceId":"530000","py":"njlszzzz","rowVersion":"0"},
{"id":"542400","name":"那曲地区","orderIndex":"542400","pinyin":"neiqudiqu","provinceId":"540000","py":"nqdq","rowVersion":"0"},
{"id":"710600","name":"南投县","orderIndex":"710600","pinyin":"nantouxian","provinceId":"710000","py":"ntx","rowVersion":"0"},
{"id":"211100","name":"盘锦市","orderIndex":"211100","pinyin":"panjinshi","provinceId":"210000","py":"pjs","rowVersion":"0"},
{"id":"350300","name":"莆田市","orderIndex":"350300","pinyin":"putianshi","provinceId":"350000","py":"pts","rowVersion":"0"},
{"id":"360300","name":"萍乡市","orderIndex":"360300","pinyin":"pingxiangshi","provinceId":"360000","py":"pxs","rowVersion":"0"},
{"id":"410400","name":"平顶山市","orderIndex":"410400","pinyin":"pingdingshanshi","provinceId":"410000","py":"pdss","rowVersion":"0"},
{"id":"410900","name":"濮阳市","orderIndex":"410900","pinyin":"puyangshi","provinceId":"410000","py":"pys","rowVersion":"0"},
{"id":"510400","name":"攀枝花市","orderIndex":"510400","pinyin":"panzhihuashi","provinceId":"510000","py":"pzhs","rowVersion":"0"},
{"id":"530800","name":"普洱市","orderIndex":"530800","pinyin":"puershi","provinceId":"530000","py":"pes","rowVersion":"0"},
{"id":"620800","name":"平凉市","orderIndex":"620800","pinyin":"pingliangshi","provinceId":"620000","py":"pls","rowVersion":"0"},
{"id":"712400","name":"屏东县","orderIndex":"712400","pinyin":"pingdongxian","provinceId":"710000","py":"pdx","rowVersion":"0"},
{"id":"712700","name":"澎湖县","orderIndex":"712700","pinyin":"penghuxian","provinceId":"710000","py":"phx","rowVersion":"0"},
{"id":"130300","name":"秦皇岛市","orderIndex":"130300","pinyin":"qinhuangdaoshi","provinceId":"130000","py":"qhds","rowVersion":"0"},
{"id":"230200","name":"齐齐哈尔市","orderIndex":"230200","pinyin":"qiqihaershi","provinceId":"230000","py":"qqhes","rowVersion":"0"},
{"id":"230900","name":"七台河市","orderIndex":"230900","pinyin":"qitaiheshi","provinceId":"230000","py":"qths","rowVersion":"0"},
{"id":"330800","name":"衢州市","orderIndex":"330800","pinyin":"quzhoushi","provinceId":"330000","py":"qzs","rowVersion":"0"},
{"id":"350500","name":"泉州市","orderIndex":"350500","pinyin":"quanzhoushi","provinceId":"350000","py":"qzs","rowVersion":"0"},
{"id":"370200","name":"青岛市","orderIndex":"370200","pinyin":"qingdaoshi","provinceId":"370000","py":"qds","rowVersion":"0"},
{"id":"441800","name":"清远市","orderIndex":"441800","pinyin":"qingyuanshi","provinceId":"440000","py":"qys","rowVersion":"0"},
{"id":"450700","name":"钦州市","orderIndex":"450700","pinyin":"qinzhoushi","provinceId":"450000","py":"qzs","rowVersion":"0"},
{"id":"522300","name":"黔西南布依族苗族自治州","orderIndex":"522300","pinyin":"qianxinanbuyizumiaozuzizhizhou","provinceId":"520000","py":"qxnbyzmzzzz","rowVersion":"0"},
{"id":"522600","name":"黔东南苗族侗族自治州","orderIndex":"522600","pinyin":"qiandongnanmiaozudongzuzizhizhou","provinceId":"520000","py":"qdnmzdzzzz","rowVersion":"0"},
{"id":"522700","name":"黔南布依族苗族自治州","orderIndex":"522700","pinyin":"qiannanbuyizumiaozuzizhizhou","provinceId":"520000","py":"qnbyzmzzzz","rowVersion":"0"},
{"id":"530300","name":"曲靖市","orderIndex":"530300","pinyin":"qujingshi","provinceId":"530000","py":"qjs","rowVersion":"0"},
{"id":"621000","name":"庆阳市","orderIndex":"621000","pinyin":"qingyangshi","provinceId":"620000","py":"qys","rowVersion":"0"},
{"id":"371100","name":"日照市","orderIndex":"371100","pinyin":"rizhaoshi","provinceId":"370000","py":"rzs","rowVersion":"0"},
{"id":"540200","name":"日喀则市","orderIndex":"540200","pinyin":"rikazeshi","provinceId":"540000","py":"rkzs","rowVersion":"0"},
{"id":"130100","name":"石家庄市","orderIndex":"130100","pinyin":"shijiazhuangshi","provinceId":"130000","py":"sjzs","rowVersion":"0"},
{"id":"139000","name":"省直辖县级行政区划","orderIndex":"139000","pinyin":"shengzhixiaxianjixingzhengquhua","provinceId":"130000","py":"szxxjxzqh","rowVersion":"0"},
{"id":"140600","name":"朔州市","orderIndex":"140600","pinyin":"shuozhoushi","provinceId":"140000","py":"szs","rowVersion":"0"},
{"id":"210100","name":"沈阳市","orderIndex":"210100","pinyin":"shenyangshi","provinceId":"210000","py":"sys","rowVersion":"0"},
{"id":"220300","name":"四平市","orderIndex":"220300","pinyin":"sipingshi","provinceId":"220000","py":"sps","rowVersion":"0"},
{"id":"220700","name":"松原市","orderIndex":"220700","pinyin":"songyuanshi","provinceId":"220000","py":"sys","rowVersion":"0"},
{"id":"230500","name":"双鸭山市","orderIndex":"230500","pinyin":"shuangyashanshi","provinceId":"230000","py":"syss","rowVersion":"0"},
{"id":"231200","name":"绥化市","orderIndex":"231200","pinyin":"suihuashi","provinceId":"230000","py":"shs","rowVersion":"0"},
{"id":"310100","name":"上海市","orderIndex":"310100","pinyin":"shanghaishi","provinceId":"310000","py":"shs","rowVersion":"0"},
{"id":"320500","name":"苏州市","orderIndex":"320500","pinyin":"suzhoushi","provinceId":"320000","py":"szs","rowVersion":"0"},
{"id":"321300","name":"宿迁市","orderIndex":"321300","pinyin":"suqianshi","provinceId":"320000","py":"sqs","rowVersion":"0"},
{"id":"330600","name":"绍兴市","orderIndex":"330600","pinyin":"shaoxingshi","provinceId":"330000","py":"sxs","rowVersion":"0"},
{"id":"341300","name":"宿州市","orderIndex":"341300","pinyin":"suzhoushi","provinceId":"340000","py":"szs","rowVersion":"0"},
{"id":"350400","name":"三明市","orderIndex":"350400","pinyin":"sanmingshi","provinceId":"350000","py":"sms","rowVersion":"0"},
{"id":"361100","name":"上饶市","orderIndex":"361100","pinyin":"shangraoshi","provinceId":"360000","py":"srs","rowVersion":"0"},
{"id":"411200","name":"三门峡市","orderIndex":"411200","pinyin":"sanmenxiashi","provinceId":"410000","py":"smxs","rowVersion":"0"},
{"id":"411400","name":"商丘市","orderIndex":"411400","pinyin":"shangqiushi","provinceId":"410000","py":"sqs","rowVersion":"0"},
{"id":"419000","name":"省直辖县级行政区划","orderIndex":"419000","pinyin":"shengzhixiaxianjixingzhengquhua","provinceId":"410000","py":"szxxjxzqh","rowVersion":"0"},
{"id":"420300","name":"十堰市","orderIndex":"420300","pinyin":"shiyanshi","provinceId":"420000","py":"sys","rowVersion":"0"},
{"id":"421300","name":"随州市","orderIndex":"421300","pinyin":"suizhoushi","provinceId":"420000","py":"szs","rowVersion":"0"},
{"id":"429000","name":"省直辖县级行政区划","orderIndex":"429000","pinyin":"shengzhixiaxianjixingzhengquhua","provinceId":"420000","py":"szxxjxzqh","rowVersion":"0"},
{"id":"430500","name":"邵阳市","orderIndex":"430500","pinyin":"shaoyangshi","provinceId":"430000","py":"sys","rowVersion":"0"},
{"id":"440200","name":"韶关市","orderIndex":"440200","pinyin":"shaoguanshi","provinceId":"440000","py":"sgs","rowVersion":"0"},
{"id":"440300","name":"深圳市","orderIndex":"440300","pinyin":"shenzhenshi","provinceId":"440000","py":"szs","rowVersion":"0"},
{"id":"440500","name":"汕头市","orderIndex":"440500","pinyin":"shantoushi","provinceId":"440000","py":"sts","rowVersion":"0"},
{"id":"441500","name":"汕尾市","orderIndex":"441500","pinyin":"shanweishi","provinceId":"440000","py":"sws","rowVersion":"0"},
{"id":"460200","name":"三亚市","orderIndex":"460200","pinyin":"sanyashi","provinceId":"460000","py":"sys","rowVersion":"0"},
{"id":"460300","name":"三沙市","orderIndex":"460300","pinyin":"sanshashi","provinceId":"460000","py":"sss","rowVersion":"0"},
{"id":"469000","name":"省直辖县级行政区划","orderIndex":"469000","pinyin":"shengzhixiaxianjixingzhengquhua","provinceId":"460000","py":"szxxjxzqh","rowVersion":"0"},
{"id":"510900","name":"遂宁市","orderIndex":"510900","pinyin":"suiningshi","provinceId":"510000","py":"sns","rowVersion":"0"},
{"id":"611000","name":"商洛市","orderIndex":"611000","pinyin":"shangluoshi","provinceId":"610000","py":"sls","rowVersion":"0"},
{"id":"640200","name":"石嘴山市","orderIndex":"640200","pinyin":"shizuishanshi","provinceId":"640000","py":"szss","rowVersion":"0"},
{"id":"120100","name":"天津市","orderIndex":"120100","pinyin":"tianjinshi","provinceId":"120000","py":"tjs","rowVersion":"0"},
{"id":"130200","name":"唐山市","orderIndex":"130200","pinyin":"tangshanshi","provinceId":"130000","py":"tss","rowVersion":"0"},
{"id":"140100","name":"太原市","orderIndex":"140100","pinyin":"taiyuanshi","provinceId":"140000","py":"tys","rowVersion":"0"},
{"id":"150500","name":"通辽市","orderIndex":"150500","pinyin":"tongliaoshi","provinceId":"150000","py":"tls","rowVersion":"0"},
{"id":"211200","name":"铁岭市","orderIndex":"211200","pinyin":"tielingshi","provinceId":"210000","py":"tls","rowVersion":"0"},
{"id":"220500","name":"通化市","orderIndex":"220500","pinyin":"tonghuashi","provinceId":"220000","py":"ths","rowVersion":"0"},
{"id":"321200","name":"泰州市","orderIndex":"321200","pinyin":"taizhoushi","provinceId":"320000","py":"tzs","rowVersion":"0"},
{"id":"331000","name":"台州市","orderIndex":"331000","pinyin":"taizhoushi","provinceId":"330000","py":"tzs","rowVersion":"0"},
{"id":"340700","name":"铜陵市","orderIndex":"340700","pinyin":"tonglingshi","provinceId":"340000","py":"tls","rowVersion":"0"},
{"id":"370900","name":"泰安市","orderIndex":"370900","pinyin":"taianshi","provinceId":"370000","py":"tas","rowVersion":"0"},
{"id":"520600","name":"铜仁市","orderIndex":"520600","pinyin":"tongrenshi","provinceId":"520000","py":"trs","rowVersion":"0"},
{"id":"610200","name":"铜川市","orderIndex":"610200","pinyin":"tongchuanshi","provinceId":"610000","py":"tcs","rowVersion":"0"},
{"id":"620500","name":"天水市","orderIndex":"620500","pinyin":"tianshuishi","provinceId":"620000","py":"tss","rowVersion":"0"},
{"id":"650400","name":"吐鲁番市","orderIndex":"650400","pinyin":"tulufanshi","provinceId":"650000","py":"tlfs","rowVersion":"0"},
{"id":"654200","name":"塔城地区","orderIndex":"654200","pinyin":"tachengdiqu","provinceId":"650000","py":"tcdq","rowVersion":"0"},
{"id":"710100","name":"台北市","orderIndex":"710100","pinyin":"taibeishi","provinceId":"710000","py":"tbs","rowVersion":"0"},
{"id":"710300","name":"台南市","orderIndex":"710300","pinyin":"tainanshi","provinceId":"710000","py":"tns","rowVersion":"0"},
{"id":"710400","name":"台中市","orderIndex":"710400","pinyin":"taizhongshi","provinceId":"710000","py":"tzs","rowVersion":"0"},
{"id":"711400","name":"桃园县","orderIndex":"711400","pinyin":"taoyuanxian","provinceId":"710000","py":"tyx","rowVersion":"0"},
{"id":"712500","name":"台东县","orderIndex":"712500","pinyin":"taidongxian","provinceId":"710000","py":"tdx","rowVersion":"0"},
{"id":"150300","name":"乌海市","orderIndex":"150300","pinyin":"wuhaishi","provinceId":"150000","py":"whs","rowVersion":"0"},
{"id":"150900","name":"乌兰察布市","orderIndex":"150900","pinyin":"wulanchabushi","provinceId":"150000","py":"wlcbs","rowVersion":"0"},
{"id":"320200","name":"无锡市","orderIndex":"320200","pinyin":"wuxishi","provinceId":"320000","py":"wxs","rowVersion":"0"},
{"id":"330300","name":"温州市","orderIndex":"330300","pinyin":"wenzhoushi","provinceId":"330000","py":"wzs","rowVersion":"0"},
{"id":"340200","name":"芜湖市","orderIndex":"340200","pinyin":"wuhushi","provinceId":"340000","py":"whs","rowVersion":"0"},
{"id":"370700","name":"潍坊市","orderIndex":"370700","pinyin":"weifangshi","provinceId":"370000","py":"wfs","rowVersion":"0"},
{"id":"371000","name":"威海市","orderIndex":"371000","pinyin":"weihaishi","provinceId":"370000","py":"whs","rowVersion":"0"},
{"id":"420100","name":"武汉市","orderIndex":"420100","pinyin":"wuhanshi","provinceId":"420000","py":"whs","rowVersion":"0"},
{"id":"450400","name":"梧州市","orderIndex":"450400","pinyin":"wuzhoushi","provinceId":"450000","py":"wzs","rowVersion":"0"},
{"id":"532600","name":"文山壮族苗族自治州","orderIndex":"532600","pinyin":"wenshanzhuangzumiaozuzizhizhou","provinceId":"530000","py":"wszzmzzzz","rowVersion":"0"},
{"id":"610500","name":"渭南市","orderIndex":"610500","pinyin":"weinanshi","provinceId":"610000","py":"wns","rowVersion":"0"},
{"id":"620600","name":"武威市","orderIndex":"620600","pinyin":"wuweishi","provinceId":"620000","py":"wws","rowVersion":"0"},
{"id":"640300","name":"吴忠市","orderIndex":"640300","pinyin":"wuzhongshi","provinceId":"640000","py":"wzs","rowVersion":"0"},
{"id":"650100","name":"乌鲁木齐市","orderIndex":"650100","pinyin":"wulumuqishi","provinceId":"650000","py":"wlmqs","rowVersion":"0"},
{"id":"110200","name":"县","orderIndex":"110200","pinyin":"xian","provinceId":"110000","py":"x","rowVersion":"0"},
{"id":"120200","name":"县","orderIndex":"120200","pinyin":"xian","provinceId":"120000","py":"x","rowVersion":"0"},
{"id":"130500","name":"邢台市","orderIndex":"130500","pinyin":"xingtaishi","provinceId":"130000","py":"xts","rowVersion":"0"},
{"id":"140900","name":"忻州市","orderIndex":"140900","pinyin":"xinzhoushi","provinceId":"140000","py":"xzs","rowVersion":"0"},
{"id":"152200","name":"兴安盟","orderIndex":"152200","pinyin":"xinganmeng","provinceId":"150000","py":"xam","rowVersion":"0"},
{"id":"152500","name":"锡林郭勒盟","orderIndex":"152500","pinyin":"xilinguolemeng","provinceId":"150000","py":"xlglm","rowVersion":"0"},
{"id":"310200","name":"县","orderIndex":"310200","pinyin":"xian","provinceId":"310000","py":"x","rowVersion":"0"},
{"id":"320300","name":"徐州市","orderIndex":"320300","pinyin":"xuzhoushi","provinceId":"320000","py":"xzs","rowVersion":"0"},
{"id":"341800","name":"宣城市","orderIndex":"341800","pinyin":"xuanchengshi","provinceId":"340000","py":"xcs","rowVersion":"0"},
{"id":"350200","name":"厦门市","orderIndex":"350200","pinyin":"xiamenshi","provinceId":"350000","py":"xms","rowVersion":"0"},
{"id":"360500","name":"新余市","orderIndex":"360500","pinyin":"xinyushi","provinceId":"360000","py":"xys","rowVersion":"0"},
{"id":"410700","name":"新乡市","orderIndex":"410700","pinyin":"xinxiangshi","provinceId":"410000","py":"xxs","rowVersion":"0"},
{"id":"411000","name":"许昌市","orderIndex":"411000","pinyin":"xuchangshi","provinceId":"410000","py":"xcs","rowVersion":"0"},
{"id":"411500","name":"信阳市","orderIndex":"411500","pinyin":"xinyangshi","provinceId":"410000","py":"xys","rowVersion":"0"},
{"id":"420600","name":"襄阳市","orderIndex":"420600","pinyin":"xiangyangshi","provinceId":"420000","py":"xys","rowVersion":"0"},
{"id":"420900","name":"孝感市","orderIndex":"420900","pinyin":"xiaoganshi","provinceId":"420000","py":"xgs","rowVersion":"0"},
{"id":"421200","name":"咸宁市","orderIndex":"421200","pinyin":"xianningshi","provinceId":"420000","py":"xns","rowVersion":"0"},
{"id":"430300","name":"湘潭市","orderIndex":"430300","pinyin":"xiangtanshi","provinceId":"430000","py":"xts","rowVersion":"0"},
{"id":"433100","name":"湘西土家族苗族自治州","orderIndex":"433100","pinyin":"xiangxitujiazumiaozuzizhizhou","provinceId":"430000","py":"xxtjzmzzzz","rowVersion":"0"},
{"id":"500200","name":"县","orderIndex":"500200","pinyin":"xian","provinceId":"500000","py":"x","rowVersion":"0"},
{"id":"532800","name":"西双版纳傣族自治州","orderIndex":"532800","pinyin":"xishuangbannadaizuzizhizhou","provinceId":"530000","py":"xsbndzzzz","rowVersion":"0"},
{"id":"610100","name":"西安市","orderIndex":"610100","pinyin":"xianshi","provinceId":"610000","py":"xas","rowVersion":"0"},
{"id":"610400","name":"咸阳市","orderIndex":"610400","pinyin":"xianyangshi","provinceId":"610000","py":"xys","rowVersion":"0"},
{"id":"630100","name":"西宁市","orderIndex":"630100","pinyin":"xiningshi","provinceId":"630000","py":"xns","rowVersion":"0"},
{"id":"710800","name":"新竹市","orderIndex":"710800","pinyin":"xinzhushi","provinceId":"710000","py":"xzs","rowVersion":"0"},
{"id":"711100","name":"新北市","orderIndex":"711100","pinyin":"xinbeishi","provinceId":"710000","py":"xbs","rowVersion":"0"},
{"id":"711300","name":"新竹县","orderIndex":"711300","pinyin":"xinzhuxian","provinceId":"710000","py":"xzx","rowVersion":"0"},
{"id":"810100","name":"香港岛","orderIndex":"810100","pinyin":"xianggangdao","provinceId":"810000","py":"xgd","rowVersion":"0"},
{"id":"810300","name":"新界","orderIndex":"810300","pinyin":"xinjie","provinceId":"810000","py":"xj","rowVersion":"0"},
{"id":"140300","name":"阳泉市","orderIndex":"140300","pinyin":"yangquanshi","provinceId":"140000","py":"yqs","rowVersion":"0"},
{"id":"140800","name":"运城市","orderIndex":"140800","pinyin":"yunchengshi","provinceId":"140000","py":"ycs","rowVersion":"0"},
{"id":"210800","name":"营口市","orderIndex":"210800","pinyin":"yingkoushi","provinceId":"210000","py":"yks","rowVersion":"0"},
{"id":"222400","name":"延边朝鲜族自治州","orderIndex":"222400","pinyin":"yanbianchaoxianzuzizhizhou","provinceId":"220000","py":"ybcxzzzz","rowVersion":"0"},
{"id":"230700","name":"伊春市","orderIndex":"230700","pinyin":"yichunshi","provinceId":"230000","py":"ycs","rowVersion":"0"},
{"id":"320900","name":"盐城市","orderIndex":"320900","pinyin":"yanchengshi","provinceId":"320000","py":"ycs","rowVersion":"0"},
{"id":"321000","name":"扬州市","orderIndex":"321000","pinyin":"yangzhoushi","provinceId":"320000","py":"yzs","rowVersion":"0"},
{"id":"360600","name":"鹰潭市","orderIndex":"360600","pinyin":"yingtanshi","provinceId":"360000","py":"yts","rowVersion":"0"},
{"id":"360900","name":"宜春市","orderIndex":"360900","pinyin":"yichunshi","provinceId":"360000","py":"ycs","rowVersion":"0"},
{"id":"370600","name":"烟台市","orderIndex":"370600","pinyin":"yantaishi","provinceId":"370000","py":"yts","rowVersion":"0"},
{"id":"420500","name":"宜昌市","orderIndex":"420500","pinyin":"yichangshi","provinceId":"420000","py":"ycs","rowVersion":"0"},
{"id":"430600","name":"岳阳市","orderIndex":"430600","pinyin":"yueyangshi","provinceId":"430000","py":"yys","rowVersion":"0"},
{"id":"430900","name":"益阳市","orderIndex":"430900","pinyin":"yiyangshi","provinceId":"430000","py":"yys","rowVersion":"0"},
{"id":"431100","name":"永州市","orderIndex":"431100","pinyin":"yongzhoushi","provinceId":"430000","py":"yzs","rowVersion":"0"},
{"id":"441700","name":"阳江市","orderIndex":"441700","pinyin":"yangjiangshi","provinceId":"440000","py":"yjs","rowVersion":"0"},
{"id":"445300","name":"云浮市","orderIndex":"445300","pinyin":"yunfushi","provinceId":"440000","py":"yfs","rowVersion":"0"},
{"id":"450900","name":"玉林市","orderIndex":"450900","pinyin":"yulinshi","provinceId":"450000","py":"yls","rowVersion":"0"},
{"id":"511500","name":"宜宾市","orderIndex":"511500","pinyin":"yibinshi","provinceId":"510000","py":"ybs","rowVersion":"0"},
{"id":"511800","name":"雅安市","orderIndex":"511800","pinyin":"yaanshi","provinceId":"510000","py":"yas","rowVersion":"0"},
{"id":"530400","name":"玉溪市","orderIndex":"530400","pinyin":"yuxishi","provinceId":"530000","py":"yxs","rowVersion":"0"},
{"id":"610600","name":"延安市","orderIndex":"610600","pinyin":"yananshi","provinceId":"610000","py":"yas","rowVersion":"0"},
{"id":"610800","name":"榆林市","orderIndex":"610800","pinyin":"yulinshi","provinceId":"610000","py":"yls","rowVersion":"0"},
{"id":"632700","name":"玉树藏族自治州","orderIndex":"632700","pinyin":"yushuzangzuzizhizhou","provinceId":"630000","py":"yszzzzz","rowVersion":"0"},
{"id":"640100","name":"银川市","orderIndex":"640100","pinyin":"yinchuanshi","provinceId":"640000","py":"ycs","rowVersion":"0"},
{"id":"654000","name":"伊犁哈萨克自治州","orderIndex":"654000","pinyin":"yilihasakezizhizhou","provinceId":"650000","py":"ylhskzzz","rowVersion":"0"},
{"id":"711200","name":"宜兰县","orderIndex":"711200","pinyin":"yilanxian","provinceId":"710000","py":"ylx","rowVersion":"0"},
{"id":"712100","name":"云林县","orderIndex":"712100","pinyin":"yunlinxian","provinceId":"710000","py":"ylx","rowVersion":"0"},
{"id":"130700","name":"张家口市","orderIndex":"130700","pinyin":"zhangjiakoushi","provinceId":"130000","py":"zjks","rowVersion":"0"},
{"id":"321100","name":"镇江市","orderIndex":"321100","pinyin":"zhenjiangshi","provinceId":"320000","py":"zjs","rowVersion":"0"},
{"id":"330900","name":"舟山市","orderIndex":"330900","pinyin":"zhoushanshi","provinceId":"330000","py":"zss","rowVersion":"0"},
{"id":"350600","name":"漳州市","orderIndex":"350600","pinyin":"zhangzhoushi","provinceId":"350000","py":"zzs","rowVersion":"0"},
{"id":"370300","name":"淄博市","orderIndex":"370300","pinyin":"ziboshi","provinceId":"370000","py":"zbs","rowVersion":"0"},
{"id":"370400","name":"枣庄市","orderIndex":"370400","pinyin":"zaozhuangshi","provinceId":"370000","py":"zzs","rowVersion":"0"},
{"id":"410100","name":"郑州市","orderIndex":"410100","pinyin":"zhengzhoushi","provinceId":"410000","py":"zzs","rowVersion":"0"},
{"id":"411600","name":"周口市","orderIndex":"411600","pinyin":"zhoukoushi","provinceId":"410000","py":"zks","rowVersion":"0"},
{"id":"411700","name":"驻马店市","orderIndex":"411700","pinyin":"zhumadianshi","provinceId":"410000","py":"zmds","rowVersion":"0"},
{"id":"430200","name":"株洲市","orderIndex":"430200","pinyin":"zhuzhoushi","provinceId":"430000","py":"zzs","rowVersion":"0"},
{"id":"430800","name":"张家界市","orderIndex":"430800","pinyin":"zhangjiajieshi","provinceId":"430000","py":"zjjs","rowVersion":"0"},
{"id":"440400","name":"珠海市","orderIndex":"440400","pinyin":"zhuhaishi","provinceId":"440000","py":"zhs","rowVersion":"0"},
{"id":"440800","name":"湛江市","orderIndex":"440800","pinyin":"zhanjiangshi","provinceId":"440000","py":"zjs","rowVersion":"0"},
{"id":"441200","name":"肇庆市","orderIndex":"441200","pinyin":"zhaoqingshi","provinceId":"440000","py":"zqs","rowVersion":"0"},
{"id":"442000","name":"中山市","orderIndex":"442000","pinyin":"zhongshanshi","provinceId":"440000","py":"zss","rowVersion":"0"},
{"id":"510300","name":"自贡市","orderIndex":"510300","pinyin":"zigongshi","provinceId":"510000","py":"zgs","rowVersion":"0"},
{"id":"512000","name":"资阳市","orderIndex":"512000","pinyin":"ziyangshi","provinceId":"510000","py":"zys","rowVersion":"0"},
{"id":"520300","name":"遵义市","orderIndex":"520300","pinyin":"zunyishi","provinceId":"520000","py":"zys","rowVersion":"0"},
{"id":"530600","name":"昭通市","orderIndex":"530600","pinyin":"zhaotongshi","provinceId":"530000","py":"zts","rowVersion":"0"},
{"id":"620700","name":"张掖市","orderIndex":"620700","pinyin":"zhangyeshi","provinceId":"620000","py":"zys","rowVersion":"0"},
{"id":"640500","name":"中卫市","orderIndex":"640500","pinyin":"zhongweishi","provinceId":"640000","py":"zws","rowVersion":"0"},
{"id":"659000","name":"自治区直辖县级行政区划","orderIndex":"659000","pinyin":"zizhiquzhixiaxianjixingzhengquhua","provinceId":"650000","py":"zzqzxxjxzqh","rowVersion":"0"},

{"id":"711700","name":"彰化县","orderIndex":"711700","pinyin":"zhanghuaxian","provinceId":"710000","py":"zhx","rowVersion":"0"}
]